HORYU-4                 
1 41340U 16012D   19272.82669272  .00000558  00000-0  35628-4 0  9991
2 41340  31.0041 197.6917 0013824  72.5879 287.6267 15.01319035198520
E-ST@R-II               
1 41459U 16025D   19273.75174191  .00000479  00000-0  28739-4 0  9997
2 41459  98.1010   5.4888 0167578   9.0869 351.3342 15.05666475188208
AAUSAT 4                
1 41460U 16025E   19273.79429290  .00001986  00000-0  10249-3 0  9996
2 41460  98.0960   7.0420 0156899   0.5225 359.6139 15.07643671188355
DIWATA-1                
1 41463U 98067HT  19273.81468441  .00043971  00000-0  17542-3 0  9992
2 41463  51.6282  64.5226 0000943 212.6191 251.1085 15.86134719196279
BEESAT-4                
1 41619U 16040W   19273.37534338  .00001464  00000-0  64528-4 0  9994
2 41619  97.3574 333.6207 0011897  27.2465 332.9394 15.23326307169645
CANX-7                  
1 41788U 16059F   19273.82391034  .00006234  00000-0  93163-3 0  9991
2 41788  98.2457 350.9798 0026458  52.3631 307.9994 14.74875408161356
RAVAN                   
1 41849U 16067B   19273.51013927  .00000893  00000-0  80132-4 0  9994
2 41849  97.9253  14.2004 0009658  45.0450 315.1553 14.98315298157545
CELTEE 1                
1 41850U 16067C   19273.27489942  .00000181  00000-0  20975-4 0  9992
2 41850  97.9192  12.4054 0009452  44.9515 315.2470 14.97047010157425
OPTICUBE 04             
1 41851U 16067D   19273.49802430  .00000670  00000-0  63725-4 0  9991
2 41851  97.9194  12.3782 0009999  47.8251 312.3817 14.96835220157442
AEROCUBE 8D             
1 41852U 16067E   19273.50655188  .00000412  00000-0  41320-4 0  9991
2 41852  97.9206  12.2128 0010792  46.7285 313.4834 14.96763692157420
AEROCUBE 8C             
1 41853U 16067F   19273.33137026 -.00000058  00000-0  20775-6 0  9999
2 41853  97.9195  11.9636 0010801  46.5163 313.6955 14.96722052157399
PROMETHEUS 2-1          
1 41854U 16067G   19273.28305540  .00000660  00000-0  62695-4 0  9995
2 41854  97.9203  12.0962 0011026  47.7085 312.5069 14.96960788157394
PROMETHEUS 2-3          
1 41855U 16067H   19273.81976118  .00000796  00000-0  74447-4 0  9998
2 41855  97.9208  12.6598 0011249  46.5935 313.6220 14.96968559157473
INS-1B                  
1 41954U 17008G   19272.84077548  .00001376  00000-0  59466-4 0  9994
2 41954  97.3902 336.4858 0010364 135.8208 224.3859 15.24133607145514
BGUSAT                  
1 41999U 17008BD  19272.80616412  .00002549  00000-0  10061-3 0  9998
2 41999  97.3986 339.2696 0009229 146.1416 214.0413 15.26418460145023
DIDO-2                  
1 42000U 17008BE  19273.49141983  .00000969  00000-0  42878-4 0  9990
2 42000  97.3914 337.6790 0009304 149.8226 210.3549 15.24030931145017
PEASSS                  
1 42015U 17008BV  19272.73248714  .00001216  00000-0  51546-4 0  9990
2 42015  97.3926 338.0510 0007056 153.7112 206.4485 15.25027663145453
AL-FARABI 1             
1 42016U 17008BW  19272.75281616  .00001509  00000-0  62005-4 0  9998
2 42016  97.3944 338.7348 0006924 152.8107 207.3495 15.25705903145616
NAYIF-1 (EO-88)         
1 42017U 17008BX  19273.32828793  .00001655  00000-0  67678-4 0  9999
2 42017  97.3938 339.3145 0006986 151.1758 208.9868 15.25743730145727
ALTAIR PATHFINDER       
1 42711U 98067LS  19273.78518530  .00112101  00000-0  36038-3 0  9993
2 42711  51.6299 106.8384 0003149 215.9013 144.1781 15.90113900135595
NSIGHT                  
1 42726U 98067MF  19273.82849422  .00036664  00000-0  23976-3 0  9997
2 42726  51.6331 134.6301 0004748 205.4492 154.6274 15.75433294134212
UCLSAT                  
1 42765U 17036A   19272.83315933  .00001247  00000-0  56086-4 0  9990
2 42765  97.3406 328.5880 0010306 220.6164 139.4305 15.22910274126164
LITUANICASAT-2          
1 42768U 17036D   19272.93644727  .00002393  00000-0  10426-3 0  9990
2 42768  97.3445 328.3569 0014190 211.2837 148.7557 15.23076943126024
AALTO-1                 
1 42775U 17036L   19273.12123204  .00000798  00000-0  38506-4 0  9999
2 42775  97.3387 327.3747 0013053 211.5583 148.4872 15.21450746125933
URSA MAIOR              
1 42776U 17036M   19273.13846320  .00000881  00000-0  42014-4 0  9994
2 42776  97.3397 327.5737 0012881 211.2896 148.7575 15.21593713125944
COMPASS 2               
1 42777U 17036N   19273.14692394  .00001637  00000-0  72246-4 0  9996
2 42777  97.3441 329.0289 0011632 210.7383 149.3174 15.23118097126013
DIAMOND RED             
1 42783U 17036U   19273.37606366  .00001075  00000-0  49535-4 0  9993
2 42783  97.3405 328.6344 0011028 220.3435 139.6984 15.22341603126023
PEGASUS                 
1 42784U 17036V   19272.74326792  .00001114  00000-0  50805-4 0  9992
2 42784  97.3410 328.2869 0010865 221.9440 138.0965 15.22651079125942
DIAMOND GREEN           
1 42785U 17036W   19273.11196771  .00001033  00000-0  47735-4 0  9995
2 42785  97.3407 328.4035 0010881 221.9685 138.0719 15.22339629125979
DIAMOND BLUE            
1 42786U 17036X   19272.84821994  .00001012  00000-0  46850-4 0  9991
2 42786  97.3407 328.1434 0010701 223.1002 136.9398 15.22339329126011
NUDTSAT                 
1 42787U 17036Y   19273.52765953  .00001210  00000-0  53297-4 0  9993
2 42787  97.3451 329.9107 0009661 224.6662 135.3805 15.23688494125957
SUCHAI                  
1 42788U 17036Z   19272.72149242  .00001368  00000-0  60907-4 0  9992
2 42788  97.3415 328.6366 0010448 220.7838 139.2618 15.23094935126034
SKCUBE                  
1 42789U 17036AA  19272.81006520  .00001244  00000-0  55838-4 0  9994
2 42789  97.3411 328.6449 0010319 220.6630 139.3837 15.22982878125965
VZLUSAT-1               
1 42790U 17036AB  19272.79237347  .00001686  00000-0  73105-4 0  9993
2 42790  97.3429 329.1900 0009927 218.8276 141.2249 15.23683521125998
ROBUSTA-1B              
1 42792U 17036AD  19273.38638111  .00001391  00000-0  61764-4 0  9996
2 42792  97.3411 329.3827 0009934 218.5950 141.4578 15.23160808126070
CICERO 6                
1 42793U 17036AE  19273.14646343  .00000894  00000-0  41306-4 0  9994
2 42793  97.3393 328.8460 0009134 221.3512 138.7034 15.22702224126096
D-SAT                   
1 42794U 17036AF  19273.08316427  .00000246  00000-0  26574-4 0  9996
2 42794  97.5295 313.1836 0127178 156.3868 204.3260 14.91138779123747
CORVUS BC2              
1 42846U 17042X   19273.49783855  .00000231  00000-0  28020-4 0  9991
2 42846  97.5514 163.2862 0011128  71.6453 288.5976 14.92003639120492
CORVUS BC1              
1 42847U 17042Y   19272.77348853  .00000338  00000-0  38448-4 0  9990
2 42847  97.5516 162.7153 0010769  73.2235 287.0165 14.92103999120380
MIRATA                  
1 43015U 17073C   19272.78681323  .00000688  00000-0  59002-4 0  9992
2 43015  97.7164 189.9858 0254716 181.4877 178.5607 14.79124456100534
MAKERSAT 0              
1 43016U 17073D   19272.75163343  .00000451  00000-0  40545-4 0  9997
2 43016  97.7200 190.1547 0257093 182.1125 177.9025 14.78839587100512
ASTERIA                 
1 43020U 98067NH  19273.83698438  .00042925  00000-0  28773-3 0  9992
2 43020  51.6409 146.2318 0002381 168.9135 191.1918 15.74797782106248
DELLINGR (RBLE)         
1 43021U 98067NJ  19273.87713539  .00011539  00000-0  12254-3 0  9991
2 43021  51.6373 165.1423 0002898 133.5843 226.5393 15.64575560105991
AEROCUBE 7B (OCSD B)    
1 43042U 17071F   19272.91269322  .00004036  00000-0  10361-3 0  9991
2 43042  51.6369 268.0973 0004516 162.3210 197.7933 15.41697119102007
AEROCUBE 7C (OCSD C)    
1 43043U 17071G   19272.91267399  .00003969  00000-0  10207-3 0  9997
2 43043  51.6370 268.1118 0004702 167.0759 193.0347 15.41696762101975
CHEFSAT                 
1 43044U 17071H   19273.49318074  .00007137  00000-0  15917-3 0  9993
2 43044  51.6380 257.8905 0004380 167.3858 192.7239 15.44696774102165
ASGARDIA 1              
1 43049U 17071N   19273.18066031  .00004475  00000-0  11338-3 0  9992
2 43049  51.6380 266.1913 0002151 177.2213 182.8785 15.41818949102018
ISARA                   
1 43050U 17071P   19272.89532854  .00007227  00000-0  16396-3 0  9999
2 43050  51.6366 262.0920 0001918 168.7875 191.3154 15.44165586102050
PROPCUBE 2 (FAUNA)      
1 43052U 17071R   19272.90752340  .00004404  00000-0  11063-3 0  9997
2 43052  51.6376 266.6366 0002099 170.8121 189.2903 15.42126615101983
CORVUS BC3              
1 43118U 18004H   19273.15903751  .00000835  00000-0  38595-4 0  9993
2 43118  97.4773 340.1283 0008920 245.5635 114.4671 15.22960236 95224
MICROMAS-2A             
1 43131U 18004W   19273.86247537  .00001857  00000-0  78752-4 0  9993
2 43131  97.4802 341.7651 0007929 242.7050 117.3380 15.24373115 95388
SPACEBEE-4              
1 43139U 18004AE  19273.82359063  .00002975  00000-0  12100-3 0  9991
2 43139  97.4823 342.3711 0007331 244.4909 115.5570 15.25308155 95409
SPACEBEE-3              
1 43140U 18004AF  19273.82981881  .00003629  00000-0  14438-3 0  9995
2 43140  97.4834 342.7217 0007123 243.4487 116.6022 15.25908044 95437
SPACEBEE-2              
1 43141U 18004AG  19273.13166482  .00004307  00000-0  16976-3 0  9995
2 43141  97.4843 342.1400 0007072 245.3944 114.6558 15.26107718 95339
SPACEBEE-1              
1 43142U 18004AH  19273.14934890  .00004626  00000-0  18090-3 0  9996
2 43142  97.4846 342.2920 0007065 245.1000 114.9504 15.26337587 95337
CICERO 7                
1 43143U 18004AJ  19273.74622778  .00001789  00000-0  75753-4 0  9999
2 43143  97.4787 341.8626 0005960 253.7342 106.3240 15.24485370 95385
GOMX-4B                 
1 43196U 18015E   19273.24965121  .00000285  00000-0  14703-4 0  9994
2 43196  97.4032  39.4137 0018454 306.6798  53.2745 15.24014484 92110
GOMX-4A                 
1 43197U 18015F   19273.70398634  .00000528  00000-0  24623-4 0  9997
2 43197  97.4059  39.8989 0018027 305.7452 161.8889 15.24122671 92193
1KUNS-PF                
1 43466U 98067NP  19273.17687060  .00037009  00000-0  30689-3 0  9998
2 43466  51.6357 167.9072 0001944 143.3554 216.7577 15.69835214 79158
